NORAD_CAT_ID,OBJECT_NAME,OBJECT_TYPE,EPOCH,MEAN_MOTION,ECCENTRICITY,INCLINATION,RA_OF_ASC_NODE,ARG_OF_PERICENTER,MEAN_ANOMALY,BSTAR,MEAN_MOTION_DOT,MEAN_MOTION_DDOT,TLE_LINE0,TLE_LINE1,TLE_LINE2,SEMIMAJOR_AXIS,PERIOD,APOGEE,PERIGEE,DECAYED
50817.0,STARLINK-3341,PAYLOAD,2022-09-07 02:06:49,15.08824925,0.0002036,53.2184,153.4783,64.1897,295.9305,0.00011817,1.592e-05,0.0,0 STARLINK-3341,1 50817U 22001Q   22250.08806995  .00001592  00000-0  11817-3 0  9990,2 50817  53.2184 153.4783 0002036  64.1897 295.9305 15.08824925 37235,6917.926,95.439,541.2,538.383,0.0
50817.0,STARLINK-3341,PAYLOAD,2022-09-08 03:32:59,15.08842702,0.0001968,53.2191,148.7206,81.0916,279.0299,5.6662e-05,6.14e-06,0.0,0 STARLINK-3341,1 50817U 22001Q   22251.14790642  .00000614  00000-0  56662-4 0  9991,2 50817  53.2191 148.7206 0001968  81.0916 279.0299 15.08842702 38647,6917.871999999999,95.437,541.099,538.376,0.0
50817.0,STARLINK-3341,PAYLOAD,2022-09-08 09:54:31,15.08838279,0.0002161,53.2192,147.5307,63.2786,296.8427,8.3371e-05,1.039e-05,0.0,0 STARLINK-3341,1 50817U 22001Q   22251.41286922  .00001039  00000-0  83371-4 0  9991,2 50817  53.2192 147.5307 0002161  63.2786 296.8427 15.08838279 37430,6917.886,95.438,541.246,538.256,0.0
50817.0,STARLINK-3341,PAYLOAD,2022-09-08 17:51:27,15.08841152,0.0001943,53.2184,146.0436,59.644,300.4744,0.00012713,1.736e-05,0.0,0 STARLINK-3341,1 50817U 22001Q   22251.74406465  .00001736  00000-0  12713-3 0  9998,2 50817  53.2184 146.0436 0001943  59.6440 300.4744 15.08841152 37484,6917.877,95.437,541.086,538.398,0.0
50817.0,STARLINK-3341,PAYLOAD,2022-09-09 01:48:22,15.08844745,0.0001931,53.2173,144.5574,63.203,296.9159,0.00015834,2.233e-05,0.0,0 STARLINK-3341,1 50817U 22001Q   22252.07526101  .00002233  00000-0  15834-3 0  9995,2 50817  53.2173 144.5574 0001931  63.2030 296.9159 15.08844745 37537,6917.866,95.437,541.067,538.395,0.0
50817.0,STARLINK-3341,PAYLOAD,2022-09-09 16:06:50,15.08858836,0.0001919,53.2173,141.8805,79.8739,280.247,-5.5557e-05,-1.173e-05,0.0,0 STARLINK-3341,1 50817U 22001Q   22252.67141677 -.00001173  00000-0 -55557-4 0  9993,2 50817  53.2173 141.8805 0001919  79.8739 280.2470 15.08858836 37627,6917.823,95.436,541.015,538.36,0.0
50817.0,STARLINK-3341,PAYLOAD,2022-09-10 00:03:45,15.088525,0.0002009999999999,53.2185,140.3932,60.212,299.9072,6.4083e-05,7.32e-06,0.0,0 STARLINK-3341,1 50817U 22001Q   22253.00261233  .00000732  00000-0  64083-4 0  9994,2 50817  53.2185 140.3932 0002010  60.2120 299.9072 15.08852500 37678,6917.842,95.437,541.0980000000002,538.317,0.0
50817.0,STARLINK-3341,PAYLOAD,2022-09-10 15:57:37,15.08844078,0.0001986999999999,53.2181,137.4194,61.2278,298.8913,2.6766e-05,1.38e-06,0.0,0 STARLINK-3341,1 50817U 22001Q   22253.66501767  .00000138  00000-0  26766-4 0  9991,2 50817  53.2181 137.4194 0001987  61.2278 298.8913 15.08844078 39022,6917.868,95.437,541.1080000000002,538.3580000000002,0.0
50817.0,STARLINK-3341,PAYLOAD,2022-09-10 20:43:46,15.08843335,0.0001799,53.2177,136.528,65.4558,294.6622,-7.4528e-06,-4.07e-06,0.0,0 STARLINK-3341,1 50817U 22001Q   22253.86373683 -.00000407  00000-0 -74528-5 0  9998,2 50817  53.2177 136.5280 0001799  65.4558 294.6622 15.08843335 37801,6917.87,95.437,540.98,538.491,0.0
50817.0,STARLINK-3341,PAYLOAD,2022-09-10 23:54:33,15.08846006,0.0001841999999999,53.218,135.9338,64.9144,295.2039,-4.6341e-05,-1.026e-05,0.0,0 STARLINK-3341,1 50817U 22001Q   22253.99621567 -.00001026  00000-0 -46341-4 0  9998,2 50817  53.2180 135.9338 0001842  64.9144 295.2039 15.08846006 37825,6917.861999999999,95.437,541.001,538.453,0.0
50817.0,STARLINK-3341,PAYLOAD,2022-09-11 20:34:33,15.08842389,0.0001784,53.2181,132.0685,64.2218,295.8958,5.6217e-06,-1.99e-06,0.0,0 STARLINK-3341,1 50817U 22001Q   22254.85733433 -.00000199  00000-0  56217-5 0  9993,2 50817  53.2181 132.0685 0001784  64.2218 295.8958 15.08842389 39209,6917.873000000001,95.437,540.972,538.504,0.0
50817.0,STARLINK-3341,PAYLOAD,2022-09-12 01:20:42,15.08847335,0.0001756,53.2182,131.1756,63.8013,296.316,-2.5992e-05,-7.02e-06,0.0,0 STARLINK-3341,1 50817U 22001Q   22255.05605152 -.00000702  00000-0 -25992-4 0  9998,2 50817  53.2182 131.1756 0001756  63.8013 296.3160 15.08847335 37986,6917.858,95.437,540.938,538.508,0.0
50817.0,STARLINK-3341,PAYLOAD,2022-09-12 15:39:10,15.08842405,0.0001706,53.2181,128.499,63.9158,296.201,9.7602e-05,1.266e-05,0.0,0 STARLINK-3341,1 50817U 22001Q   22255.65220995  .00001266  00000-0  97602-4 0  9993,2 50817  53.2181 128.4990 0001706  63.9158 296.2010 15.08842405 38077,6917.873000000001,95.437,540.918,538.558,0.0
50817.0,STARLINK-3341,PAYLOAD,2022-09-13 01:11:30,15.08833422,0.0001659,53.2182,126.7146,64.5043,295.6121,-4.8691000000000005e-06,-3.66e-06,0.0,0 STARLINK-3341,1 50817U 22001Q   22256.04965923 -.00000366  00000-0 -48691-5 0  9991,2 50817  53.2182 126.7146 0001659  64.5043 295.6121 15.08833422 38131,6917.9,95.438,540.913,538.618,0.0
50817.0,STARLINK-3341,PAYLOAD,2022-09-14 01:02:17,15.08840378,0.0001516,53.2179,122.2541,61.1436,298.9709,3.5934e-05,2.84e-06,0.0,0 STARLINK-3341,1 50817U 22001Q   22257.04325515  .00000284  00000-0  35934-4 0  9991,2 50817  53.2179 122.2541 0001516  61.1436 298.9709 15.08840378 39539,6917.879,95.438,540.793,538.695,0.0
50817.0,STARLINK-3341,PAYLOAD,2022-09-15 07:14:37,15.08839086,0.0001595,53.2175,116.6057,58.445,301.6697,7.322e-06,-1.71e-06,0.0,0 STARLINK-3341,1 50817U 22001Q   22258.30181721 -.00000171  00000-0  73220-5 0  9997,2 50817  53.2175 116.6057 0001595  58.4450 301.6697 15.08839086 38470,6917.8830000000025,95.438,540.852,538.645,0.0
50817.0,STARLINK-3341,PAYLOAD,2022-09-15 21:33:05,15.08840935,0.0001847,53.2183,113.9281,60.8186,299.2991,0.00010835,1.437e-05,0.0,0 STARLINK-3341,1 50817U 22001Q   22258.89797728  .00001437  00000-0  10835-3 0  9997,2 50817  53.2183 113.9281 0001847  60.8186 299.2991 15.08840935 39814,6917.878000000002,95.437,541.02,538.465,0.0
50817.0,STARLINK-3341,PAYLOAD,2022-09-16 07:05:25,15.08827264,0.0001563,53.2167,112.1447,59.0359,301.0787,-1.9902e-05,-6.05e-06,0.0,0 STARLINK-3341,1 50817U 22001Q   22259.29543122 -.00000605  00000-0 -19902-4 0  9992,2 50817  53.2167 112.1447 0001563  59.0359 301.0787 15.08827264 38621,6917.919,95.438,540.866,538.703,0.0
50817.0,STARLINK-3341,PAYLOAD,2022-09-16 15:02:20,15.08831202,0.0001714,53.2178,110.6583,60.6262,299.4901,1.1703e-05,-1.02e-06,0.0,0 STARLINK-3341,1 50817U 22001Q   22259.62663089 -.00000102  00000-0  11703-4 0  9996,2 50817  53.2178 110.6583 0001714  60.6262 299.4901 15.08831202 39925,6917.906999999997,95.438,540.9580000000002,538.587,0.0
50817.0,STARLINK-3341,PAYLOAD,2022-09-16 21:23:53,15.088359099999998,0.0001744,53.2182,109.469,63.279,296.8381,1.9906e-05,2.9e-07,0.0,0 STARLINK-3341,1 50817U 22001Q   22259.89158952  .00000029  00000-0  19906-4 0  9993,2 50817  53.2182 109.4690 0001744  63.2790 296.8381 15.08835910 38712,6917.893,95.438,540.964,538.5509999999998,0.0
50817.0,STARLINK-3341,PAYLOAD,2022-09-17 06:56:11,15.08839361,0.0001688,53.2175,107.6845,63.0798,297.0367,6.1251e-05,6.87e-06,0.0,0 STARLINK-3341,1 50817U 22001Q   22260.28902651  .00000687  00000-0  61251-4 0  9991,2 50817  53.2175 107.6845 0001688  63.0798 297.0367 15.08839361 38776,6917.882,95.438,540.915,538.58,0.0
50817.0,STARLINK-3341,PAYLOAD,2022-09-17 21:14:39,15.08855076,0.000188,53.2175,105.0081,73.3879,286.732,-3.2854e-05,-8.11e-06,0.0,0 STARLINK-3341,1 50817U 22001Q   22260.88517909 -.00000811  00000-0 -32854-4 0  9993,2 50817  53.2175 105.0081 0001880  73.3879 286.7320 15.08855076 40114,6917.834,95.437,541.0,538.399,0.0
50817.0,STARLINK-3341,PAYLOAD,2022-09-18 00:25:26,15.08844871,0.0001706999999999,53.2179,104.4138,62.6348,297.4818,6.871899999999999e-05,8.06e-06,0.0,0 STARLINK-3341,1 50817U 22001Q   22261.01766313  .00000806  00000-0  68719-4 0  9995,2 50817  53.2179 104.4138 0001707  62.6348 297.4818 15.08844871 40138,6917.866,95.437,540.911,538.55,0.0
50817.0,STARLINK-3341,PAYLOAD,2022-09-18 19:30:04,15.08837425,0.0001623,53.2181,100.845,63.4945,296.6213,8.0869e-05,9.99e-06,0.0,0 STARLINK-3341,1 50817U 22001Q   22261.81255058  .00000999  00000-0  80869-4 0  9995,2 50817  53.2181 100.8450 0001623  63.4945 296.6213 15.08837425 40257,6917.888000000001,95.438,540.876,538.63,0.0
50817.0,STARLINK-3341,PAYLOAD,2022-09-18 21:05:27,15.08838721,0.0001664,53.2182,100.5477,62.1716,297.9445,9.3073e-05,1.193e-05,0.0,0 STARLINK-3341,1 50817U 22001Q   22261.87878984  .00001193  00000-0  93073-4 0  9998,2 50817  53.2182 100.5477 0001664  62.1716 297.9445 15.08838721 39014,6917.884,95.438,540.9,538.5980000000002,0.0
50817.0,STARLINK-3341,PAYLOAD,2022-09-19 12:59:18,15.08838096,0.0001696999999999,53.2184,97.5737,65.3643,294.7526,1.8393e-05,5e-08,0.0,0 STARLINK-3341,1 50817U 22001Q   22262.54119204  .00000005  00000-0  18393-4 0  9999,2 50817  53.2184  97.5737 0001697  65.3643 294.7526 15.08838096 39111,6917.886,95.438,540.925,538.577,0.0
50817.0,STARLINK-3341,PAYLOAD,2022-09-19 19:20:51,15.08840136,0.0001481,53.218,96.384,69.0874,291.0277,2.0651e-05,4.1e-07,0.0,0 STARLINK-3341,1 50817U 22001Q   22262.80614992  .00000041  00000-0  20651-4 0  9992,2 50817  53.2180  96.3840 0001481  69.0874 291.0277 15.08840136 39152,6917.88,95.438,540.77,538.72,0.0
50817.0,STARLINK-3341,PAYLOAD,2022-09-19 20:56:14,15.08840701,0.0001457,53.2177,96.0867,72.0781,288.0370000000001,-2.6567e-05,-7.11e-06,0.0,0 STARLINK-3341,1 50817U 22001Q   22262.87239094 -.00000711  00000-0 -26567-4 0  9993,2 50817  53.2177  96.0867 0001457  72.0781 288.0370 15.08840701 40417,6917.878000000002,95.438,540.751,538.735,0.0
50817.0,STARLINK-3341,PAYLOAD,2022-09-20 12:50:05,15.08844351,0.0001511,53.2181,93.1116,69.6402,290.4753,0.00011845,1.598e-05,0.0,0 STARLINK-3341,1 50817U 22001Q   22263.53478519  .00001598  00000-0  11845-3 0  9998,2 50817  53.2181  93.1116 0001511  69.6402 290.4753 15.08844351 39268,6917.8669999999975,95.437,540.7769999999998,538.687,0.0
